{"type": "FeatureCollection", "features": [ {"type": "Feature", "properties": {"norad_id": 43010, "name": "FENGYUN 3D", "group": "weather", "lat": -50.507512770397405, "lon": 136.53978611975802, "alt_km": 833.2060153121074, "timestamp": "2025-12-27T02:10:15.831257+00:00", "meta": {"OBJECT_NAME": "FENGYUN 3D", "OBJECT_ID": "2017-072A", "EPOCH": "2025-12-26T21:42:07.445376", "MEAN_MOTION": 14.19687831, "ECCENTRICITY": 0.0001641, "INCLINATION": 98.9916, "RA_OF_ASC_NODE": 327.4277, "ARG_OF_PERICENTER": 145.0024, "MEAN_ANOMALY": 215.126, "EPHEMERIS_TYPE": 0, "CLASSIFICATION_TYPE": "U", "NORAD_CAT_ID": 43010, "ELEMENT_SET_NO": 999, "REV_AT_EPOCH": 42054, "BSTAR": 7.6755e-05, "MEAN_MOTION_DOT": 1.16e-06, "MEAN_MOTION_DDOT": 0}, "tle": {"line1": "1 43010U 17072A   25360.90425284  .00000116  00000+0  76755-4 0  9996", "line2": "2 43010  98.9916 327.4277 0001641 145.0024 215.1260 14.19687831420542"}}, "geometry": {"type": "Point", "coordinates": [136.53978611975802, -50.507512770397405]}}, {"type": "Feature", "properties": {"norad_id": 43013, "name": "NOAA 20 (JPSS-1)", "group": "weather", "lat": 14.849918535395513, "lon": -65.11213130846689, "alt_km": 826.8126178074554, "timestamp": "2025-12-27T02:10:15.831268+00:00", "meta": {"OBJECT_NAME": "NOAA 20 (JPSS-1)", "OBJECT_ID": "2017-073A", "EPOCH": "2025-12-26T19:20:01.965984", "MEAN_MOTION": 14.19529525, "ECCENTRICITY": 0.0002051, "INCLINATION": 98.7616, "RA_OF_ASC_NODE": 296.9496, "ARG_OF_PERICENTER": 67.1823, "MEAN_ANOMALY": 292.957, "EPHEMERIS_TYPE": 0, "CLASSIFICATION_TYPE": "U", "NORAD_CAT_ID": 43013, "ELEMENT_SET_NO": 999, "REV_AT_EPOCH": 42001, "BSTAR": 7.3196e-05, "MEAN_MOTION_DOT": 1.1e-06, "MEAN_MOTION_DDOT": 0}, "tle": {"line1": "1 43013U 17073A   25360.80557831  .00000110  00000+0  73196-4 0  9993", "line2": "2 43013  98.7616 296.9496 0002051  67.1823 292.9570 14.19529525420014"}}, "geometry": {"type": "Point", "coordinates": [-65.11213130846689, 14.849918535395513]}}, {"type": "Feature", "properties": {"norad_id": 43226, "name": "GOES 17", "group": "weather", "lat": -0.3683980029620133, "lon": 38.919733461912585, "alt_km": 35792.731657089986, "timestamp": "2025-12-27T02:10:15.831280+00:00", "meta": {"OBJECT_NAME": "GOES 17", "OBJECT_ID": "2018-022A", "EPOCH": "2025-12-26T13:28:40.537056", "MEAN_MOTION": 1.0027151, "ECCENTRICITY": 0.0003196, "INCLINATION": 0.4913, "RA_OF_ASC_NODE": 89.0151, "ARG_OF_PERICENTER": 191.2344, "MEAN_ANOMALY": 287.726, "EPHEMERIS_TYPE": 0, "CLASSIFICATION_TYPE": "U", "NORAD_CAT_ID": 43226, "ELEMENT_SET_NO": 999, "REV_AT_EPOCH": 2869, "BSTAR": 0, "MEAN_MOTION_DOT": -1.61e-06, "MEAN_MOTION_DDOT": 0}, "tle": {"line1": "1 43226U 18022A   25360.56158029 -.00000161  00000+0  00000+0 0  9999", "line2": "2 43226   0.4913  89.0151 0003196 191.2344 287.7260  1.00271510 28697"}}, "geometry": {"type": "Point", "coordinates": [38.919733461912585, -0.3683980029620133]}}, {"type": "Feature", "properties": {"norad_id": 43491, "name": "FENGYUN 2H", "group": "weather", "lat": 2.0734508010392494, "lon": -152.27748982220052, "alt_km": 35778.36103629246, "timestamp": "2025-12-27T02:10:15.831293+00:00", "meta": {"OBJECT_NAME": "FENGYUN 2H", "OBJECT_ID": "2018-050A", "EPOCH": "2025-12-26T19:54:42.183360", "MEAN_MOTION": 1.00270085, "ECCENTRICITY": 0.0002477, "INCLINATION": 2.5849, "RA_OF_ASC_NODE": 81.1807, "ARG_OF_PERICENTER": 167.0263, "MEAN_ANOMALY": 225.3647, "EPHEMERIS_TYPE": 0, "CLASSIFICATION_TYPE": "U", "NORAD_CAT_ID": 43491, "ELEMENT_SET_NO": 999, "REV_AT_EPOCH": 2771, "BSTAR": 0, "MEAN_MOTION_DOT": -1.08e-06, "MEAN_MOTION_DDOT": 0}, "tle": {"line1": "1 43491U 18050A   25360.82965490 -.00000108  00000+0  00000+0 0  9992", "line2": "2 43491   2.5849  81.1807 0002477 167.0263 225.3647  1.00270085 27710"}}, "geometry": {"type": "Point", "coordinates": [-152.27748982220052, 2.0734508010392494]}}, {"type": "Feature", "properties": {"norad_id": 43689, "name": "METOP-C", "group": "weather", "lat": -74.57222962858717, "lon": -155.02118185206837, "alt_km": 827.7713684343007, "timestamp": "2025-12-27T02:10:15.831304+00:00", "meta": {"OBJECT_NAME": "METOP-C", "OBJECT_ID": "2018-087A", "EPOCH": "2025-12-26T18:12:26.908992", "MEAN_MOTION": 14.21489651, "ECCENTRICITY": 5.44e-05, "INCLINATION": 98.691, "RA_OF_ASC_NODE": 58.3121, "ARG_OF_PERICENTER": 12.0062, "MEAN_ANOMALY": 348.1128, "EPHEMERIS_TYPE": 0, "CLASSIFICATION_TYPE": "U", "NORAD_CAT_ID": 43689, "ELEMENT_SET_NO": 999, "REV_AT_EPOCH": 37033, "BSTAR": 8.2625e-05, "MEAN_MOTION_DOT": 1.37e-06, "MEAN_MOTION_DDOT": 0}, "tle": {"line1": "1 43689U 18087A   25360.75864478  .00000137  00000+0  82625-4 0  9996", "line2": "2 43689  98.6910  58.3121 0000544  12.0062 348.1128 14.21489651370333"}}, "geometry": {"type": "Point", "coordinates": [-155.02118185206837, -74.57222962858717]}}, {"type": "Feature", "properties": {"norad_id": 43823, "name": "GEO-KOMPSAT-2A", "group": "weather", "lat": 0.02236496730153258, "lon": -103.39287603941615, "alt_km": 35788.277962275795, "timestamp": "2025-12-27T02:10:15.831324+00:00", "meta": {"OBJECT_NAME": "GEO-KOMPSAT-2A", "OBJECT_ID": "2018-100A", "EPOCH": "2025-12-25T12:13:38.614080", "MEAN_MOTION": 1.00268534, "ECCENTRICITY": 2.51e-05, "INCLINATION": 0.0434, "RA_OF_ASC_NODE": 172.7377, "ARG_OF_PERICENTER": 259.9479, "MEAN_ANOMALY": 333.2359, "EPHEMERIS_TYPE": 0, "CLASSIFICATION_TYPE": "U", "NORAD_CAT_ID": 43823, "ELEMENT_SET_NO": 999, "REV_AT_EPOCH": 2588, "BSTAR": 0, "MEAN_MOTION_DOT": -3.22e-06, "MEAN_MOTION_DDOT": 0}, "tle": {"line1": "1 43823U 18100A   25359.50947470 -.00000322  00000+0  00000+0 0  9996", "line2": "2 43823   0.0434 172.7377 0000251 259.9479 333.2359  1.00268534 25880"}}, "geometry": {"type": "Point", "coordinates": [-103.39287603941615, 0.02236496730153258]}}, {"type": "Feature", "properties": {"norad_id": 44387, "name": "METEOR-M2 2", "group": "weather", "lat": 62.22863968940594, "lon": 178.30514749541288, "alt_km": 803.4267202932242, "timestamp": "2025-12-27T02:10:15.831336+00:00", "meta": {"OBJECT_NAME": "METEOR-M2 2", "OBJECT_ID": "2019-038A", "EPOCH": "2025-12-26T20:34:07.485312", "MEAN_MOTION": 14.24297739, "ECCENTRICITY": 0.0001857, "INCLINATION": 98.8992, "RA_OF_ASC_NODE": 340.7593, "ARG_OF_PERICENTER": 123.0279, "MEAN_ANOMALY": 237.1078, "EPHEMERIS_TYPE": 0, "CLASSIFICATION_TYPE": "U", "NORAD_CAT_ID": 44387, "ELEMENT_SET_NO": 999, "REV_AT_EPOCH": 33676, "BSTAR": 0.00013972, "MEAN_MOTION_DOT": 2.77e-06, "MEAN_MOTION_DDOT": 0}, "tle": {"line1": "1 44387U 19038A   25360.85703108  .00000277  00000+0  13972-3 0  9995", "line2": "2 44387  98.8992 340.7593 0001857 123.0279 237.1078 14.24297739336760"}}, "geometry": {"type": "Point", "coordinates": [178.30514749541288, 62.22863968940594]}}, {"type": "Feature", "properties": {"norad_id": 47719, "name": "ARKTIKA-M 1", "group": "weather", "lat": 44.348964257580846, "lon": 111.69093760121288, "alt_km": 23401.89232262353, "timestamp": "2025-12-27T02:10:15.831349+00:00", "meta": {"OBJECT_NAME": "ARKTIKA-M 1", "OBJECT_ID": "2021-016A", "EPOCH": "2025-12-26T00:48:12.402432", "MEAN_MOTION": 2.00630537, "ECCENTRICITY": 0.72108, "INCLINATION": 63.1768, "RA_OF_ASC_NODE": 82.1795, "ARG_OF_PERICENTER": 269.1716, "MEAN_ANOMALY": 15.5344, "EPHEMERIS_TYPE": 0, "CLASSIFICATION_TYPE": "U", "NORAD_CAT_ID": 47719, "ELEMENT_SET_NO": 999, "REV_AT_EPOCH": 3531, "BSTAR": 0, "MEAN_MOTION_DOT": -4.1e-07, "MEAN_MOTION_DDOT": 0}, "tle": {"line1": "1 47719U 21016A   25360.03347688 -.00000041  00000+0  00000+0 0  9997", "line2": "2 47719  63.1768  82.1795 7210800 269.1716  15.5344  2.00630537 35313"}}, "geometry": {"type": "Point", "coordinates": [111.69093760121288, 44.348964257580846]}}, {"type": "Feature", "properties": {"norad_id": 49008, "name": "FENGYUN 3E", "group": "weather", "lat": -27.50472597225183, "lon": 176.8426978867571, "alt_km": 830.7681048124996, "timestamp": "2025-12-27T02:10:15.831361+00:00", "meta": {"OBJECT_NAME": "FENGYUN 3E", "OBJECT_ID": "2021-062A", "EPOCH": "2025-12-26T21:48:47.510208", "MEAN_MOTION": 14.19882056, "ECCENTRICITY": 0.0001066, "INCLINATION": 98.7482, "RA_OF_ASC_NODE": 1.2618, "ARG_OF_PERICENTER": 184.2239, "MEAN_ANOMALY": 175.8928, "EPHEMERIS_TYPE": 0, "CLASSIFICATION_TYPE": "U", "NORAD_CAT_ID": 49008, "ELEMENT_SET_NO": 999, "REV_AT_EPOCH": 23213, "BSTAR": 5.5578e-05, "MEAN_MOTION_DOT": 7.4e-07, "MEAN_MOTION_DDOT": 0}, "tle": {"line1": "1 49008U 21062A   25360.90888322  .00000074  00000+0  55578-4 0  9992", "line2": "2 49008  98.7482   1.2618 0001066 184.2239 175.8928 14.19882056232136"}}, "geometry": {"type": "Point", "coordinates": [176.8426978867571, -27.50472597225183]}}, {"type": "Feature", "properties": {"norad_id": 51850, "name": "GOES 18", "group": "weather", "lat": 0.01841861290304645, "lon": -8.620761795168947, "alt_km": 35785.88317461417, "timestamp": "2025-12-27T02:10:15.831375+00:00", "meta": {"OBJECT_NAME": "GOES 18", "OBJECT_ID": "2022-021A", "EPOCH": "2025-12-26T17:30:57.389760", "MEAN_MOTION": 1.00268759, "ECCENTRICITY": 3.98e-05, "INCLINATION": 0.0378, "RA_OF_ASC_NODE": 210.115, "ARG_OF_PERICENTER": 88.325, "MEAN_ANOMALY": 282.7644, "EPHEMERIS_TYPE": 0, "CLASSIFICATION_TYPE": "U", "NORAD_CAT_ID": 51850, "ELEMENT_SET_NO": 999, "REV_AT_EPOCH": 486, "BSTAR": 0, "MEAN_MOTION_DOT": 1.19e-06, "MEAN_MOTION_DDOT": 0}, "tle": {"line1": "1 51850U 22021A   25360.72983090  .00000119  00000+0  00000+0 0  9999", "line2": "2 51850   0.0378 210.1150 0000398  88.3250 282.7644  1.00268759  4864"}}, "geometry": {"type": "Point", "coordinates": [-8.620761795168947, 0.01841861290304645]}}]}